[{"OBJECT_NAME":"TEVEL2-2","OBJECT_ID":"2025-052K","EPOCH":"2026-03-09T15:33:48.895776","MEAN_MOTION":15.30343745,"ECCENTRICITY":0.0004693,"INCLINATION":97.3987,"RA_OF_ASC_NODE":324.77,"ARG_OF_PERICENTER":105.793,"MEAN_ANOMALY":254.3828,"EPHEMERIS_TYPE":0,"CLASSIFICATION_TYPE":"U","NORAD_CAT_ID":63219,"ELEMENT_SET_NO":999,"REV_AT_EPOCH":5485,"BSTAR":0.00069428,"MEAN_MOTION_DOT":0.00020339,"MEAN_MOTION_DDOT":0},{"OBJECT_NAME":"STARLINK-35589","OBJECT_ID":"2025-259E","EPOCH":"2026-03-09T13:48:33.310656","MEAN_MOTION":15.27585849,"ECCENTRICITY":0.0001843,"INCLINATION":42.9999,"RA_OF_ASC_NODE":275.0108,"ARG_OF_PERICENTER":261.7628,"MEAN_ANOMALY":98.3015,"EPHEMERIS_TYPE":0,"CLASSIFICATION_TYPE":"U","NORAD_CAT_ID":66426,"ELEMENT_SET_NO":999,"REV_AT_EPOCH":1947,"BSTAR":0.00089058,"MEAN_MOTION_DOT":0.0002433,"MEAN_MOTION_DDOT":0}]
